{
  "type": "FeatureCollection",
  "features": [
    {
      "type": "Feature",
      "properties": {
        "limit": 45,
        "type": "college"
      },
      "geometry": {
        "coordinates": [
          [
            [
              78.62881929744577,
              17.52435330481984
            ],
            [
              78.62800071155363,
              17.521490129264308
            ],
            [
              78.62722135584892,
              17.519095368236492
            ],
            [
              78.6324927776709,
              17.517084998101367
            ],
            [
              78.63470902955095,
              17.521710703099956
            ],
            [
              78.62881929744577,
              17.52435330481984
            ]
          ]
        ],
        "type": "Polygon"
      },
      "id": 0
    },
    {
      "type": "Feature",
      "properties": {
        "limit": 30,
        "type": "school"
      },
      "geometry": {
        "coordinates": [
          [
            [
              78.60810604404367,
              17.43210779963671
            ],
            [
              78.60795379834474,
              17.430832792676284
            ],
            [
              78.6077846364563,
              17.429331823699002
            ],
            [
              78.60825828974265,
              17.429251126092268
            ],
            [
              78.60864736208583,
              17.432075521090127
            ],
            [
              78.60810604404367,
              17.43210779963671
            ]
          ]
        ],
        "type": "Polygon"
      },
      "id": 1
    },
    {
      "type": "Feature",
      "properties": {
        "limit": 45,
        "type": "university"
      },
      "geometry": {
        "coordinates": [
          [
            [
              78.53047573060644,
              17.42662322622718
            ],
            [
              78.52587802506855,
              17.42255796830949
            ],
            [
              78.52184047995434,
              17.416673303630205
            ],
            [
              78.518123747201,
              17.410234143149225
            ],
            [
              78.51063834710902,
              17.39413042785837
            ],
            [
              78.51420639717372,
              17.391707734505133
            ],
            [
              78.53108375785905,
              17.396947043214865
            ],
            [
              78.5376696644334,
              17.399827589588682
            ],
            [
              78.53862568618524,
              17.40728992049158
            ],
            [
              78.53683953604286,
              17.409907061602127
            ],
            [
              78.53656221977451,
              17.414093491234752
            ],
            [
              78.53663028896705,
              17.415467126289457
            ],
            [
              78.53875595580519,
              17.41769156600384
            ],
            [
              78.54123092234602,
              17.419357243874018
            ],
            [
              78.53637532315497,
              17.424326840819106
            ],
            [
              78.53110695785062,
              17.42692371633362
            ],
            [
              78.53047573060644,
              17.42662322622718
            ]
          ]
        ],
        "type": "Polygon"
      },
      "id": 2
    },
    {
      "type": "Feature",
      "properties": {
        "limit": 45,
        "type": "hospital"
      },
      "geometry": {
        "coordinates": [
          [
            [
              78.50532234126922,
              17.43979166708091
            ],
            [
              78.50563122247581,
              17.440943521187563
            ],
            [
              78.50281555183898,
              17.44139601291957
            ],
            [
              78.50277056946607,
              17.440662664649224
            ],
            [
              78.50266639815266,
              17.437980935558215
            ],
            [
              78.5048857477936,
              17.43751812428222
            ],
            [
              78.50532234126922,
              17.43979166708091
            ]
          ]
        ],
        "type": "Polygon"
      },
      "id": 3
    },
    {
      "type": "Feature",
      "properties": {
        "limit": 35,
        "type": "hospital"
      },
      "geometry": {
        "coordinates": [
          [
            [
              78.49328708797174,
              17.440793319563937
            ],
            [
              78.49295406164731,
              17.43939319843105
            ],
            [
              78.49333188687751,
              17.43889007371027
            ],
            [
              78.49509794771956,
              17.43867125700514
            ],
            [
              78.4970818991838,
              17.438507144303486
            ],
            [
              78.49811401266243,
              17.44067342006973
            ],
            [
              78.49780437861915,
              17.441045404228902
            ],
            [
              78.49867594066944,
              17.44156950058708
            ],
            [
              78.49849245382859,
              17.442466633153416
            ],
            [
              78.49553372852438,
              17.442433811308106
            ],
            [
              78.49523556240774,
              17.4404754305085
            ],
            [
              78.49333188643533,
              17.441011525667335
            ],
            [
              78.49328708797174,
              17.440793319563937
            ]
          ]
        ],
        "type": "Polygon"
      },
      "id": 4
    },
    {
      "type": "Feature",
      "properties": {
        "limit": 35,
        "type": "general"
      },
      "geometry": {
        "coordinates": [
          [
            [
              78.50474136198164,
              17.435055366389847
            ],
            [
              78.5055055441016,
              17.431974124466777
            ],
            [
              78.50763720926915,
              17.43232335647525
            ],
            [
              78.50745418751171,
              17.43339159141152
            ],
            [
              78.50599021632291,
              17.435342964412115
            ],
            [
              78.50474136198164,
              17.435055366389847
            ]
          ]
        ],
        "type": "Polygon"
      },
      "id": 5
    },
    {
      "type": "Feature",
      "properties": {
        "limit": 40,
        "type": "hospital"
      },
      "geometry": {
        "coordinates": [
          [
            [
              78.50209864291071,
              17.428946554518618
            ],
            [
              78.50149938037856,
              17.42795119465771
            ],
            [
              78.50143445295697,
              17.422778556434594
            ],
            [
              78.50010344080243,
              17.420641315819722
            ],
            [
              78.50059322449619,
              17.42024809090421
            ],
            [
              78.50263843829464,
              17.420371989860655
            ],
            [
              78.50451741776675,
              17.420898559715766
            ],
            [
              78.50604321218816,
              17.423841126739333
            ],
            [
              78.50295915963352,
              17.427434091634467
            ],
            [
              78.5029751631098,
              17.42838903473873
            ],
            [
              78.50209864291071,
              17.428946554518618
            ]
          ]
        ],
        "type": "Polygon"
      },
      "id": 6
    },
    {
      "type": "Feature",
      "properties": {
        "limit": 40,
        "type": "general"
      },
      "geometry": {
        "coordinates": [
          [
            [
              78.46031035797267,
              17.407563505615386
            ],
            [
              78.46102410079675,
              17.40462643661776
            ],
            [
              78.46184936593642,
              17.403115317512857
            ],
            [
              78.46162632077557,
              17.402987616531078
            ],
            [
              78.46131405829004,
              17.402945049585085
            ],
            [
              78.46068953331888,
              17.403136600763972
            ],
            [
              78.46060031546585,
              17.402561946625084
            ],
            [
              78.46242451207843,
              17.402519380017537
            ],
            [
              78.46349512631463,
              17.40309403428951
            ],
            [
              78.46527948337348,
              17.40405178739617
            ],
            [
              78.46400812870411,
              17.405456483632264
            ],
            [
              78.46271446983542,
              17.406712187117392
            ],
            [
              78.46072937260664,
              17.407584789543563
            ],
            [
              78.46031035797267,
              17.407563505615386
            ]
          ]
        ],
        "type": "Polygon"
      },
      "id": 7
    },
    {
      "type": "Feature",
      "properties": {
        "limit": 39,
        "type": "general"
      },
      "geometry": {
        "coordinates": [
          [
            [
              78.47936699033073,
              17.38593345874267
            ],
            [
              78.47813804970468,
              17.385266933788373
            ],
            [
              78.47622897732361,
              17.385244715974906
            ],
            [
              78.47578663128303,
              17.385422458407348
            ],
            [
              78.47497178331571,
              17.384289347443357
            ],
            [
              78.47438974905339,
              17.38484479487063
            ],
            [
              78.47387755890196,
              17.38437821914512
            ],
            [
              78.47497178331571,
              17.383000702917926
            ],
            [
              78.47902274178438,
              17.382467468047153
            ],
            [
              78.48088942484372,
              17.381956448917464
            ],
            [
              78.48189052377677,
              17.38140099272357
            ],
            [
              78.48531288524077,
              17.385244715055634
            ],
            [
              78.47936699033073,
              17.38593345874267
            ]
          ]
        ],
        "type": "Polygon"
      },
      "id": 8
    },
    {
      "type": "Feature",
      "properties": {
        "limit": 41,
        "type": "general"
      },
      "geometry": {
        "coordinates": [
          [
            [
              78.51355809098953,
              17.44581929980599
            ],
            [
              78.5143289646445,
              17.44559547797205
            ],
            [
              78.51550203324962,
              17.44466821316061
            ],
            [
              78.51736218489634,
              17.44359705656018
            ],
            [
              78.51751300800277,
              17.443996742595274
            ],
            [
              78.51702702243682,
              17.44417260417238
            ],
            [
              78.51516687079135,
              17.44529171932814
            ],
            [
              78.51456357836554,
              17.44591522336465
            ],
            [
              78.51362512348146,
              17.446282929873476
            ],
            [
              78.51355809098953,
              17.44581929980599
            ]
          ]
        ],
        "type": "Polygon"
      },
      "id": 9
    },
    {
      "type": "Feature",
      "properties": {
        "limit": 40,
        "type": "general"
      },
      "geometry": {
        "coordinates": [
          [
            [
              78.49241889414736,
              17.408574364175962
            ],
            [
              78.49210857739416,
              17.407883197017924
            ],
            [
              78.49614031619882,
              17.406552622514113
            ],
            [
              78.495049018477,
              17.403891444446003
            ],
            [
              78.49571592264033,
              17.40377574017279
            ],
            [
              78.49632219915247,
              17.405395593332997
            ],
            [
              78.49684470898575,
              17.406347099989006
            ],
            [
              78.4981785173124,
              17.40582643717896
            ],
            [
              78.5014524104759,
              17.4046983293334
            ],
            [
              78.50157366577838,
              17.405305772884688
            ],
            [
              78.49930013132075,
              17.40605784322298
            ],
            [
              78.49711753587906,
              17.407099166043153
            ],
            [
              78.49796632299598,
              17.409066092958
            ],
            [
              78.49820883693849,
              17.410309876899248
            ],
            [
              78.49760256042634,
              17.41042557703568
            ],
            [
              78.4973903636481,
              17.409268572375822
            ],
            [
              78.49699628459109,
              17.408227262623484
            ],
            [
              78.49651126338142,
              17.40727272282392
            ],
            [
              78.49602623939154,
              17.407417347794663
            ],
            [
              78.49241889414736,
              17.408574364175962
            ]
          ]
        ],
        "type": "Polygon"
      },
      "id": 10
    },
    {
      "type": "Feature",
      "properties": {
        "limit": 42,
        "type": "general"
      },
      "geometry": {
        "coordinates": [
          [
            [
              78.47124941137696,
              17.410409067564913
            ],
            [
              78.4708532312863,
              17.40721294678127
            ],
            [
              78.47593157633469,
              17.407934655845935
            ],
            [
              78.4765391582419,
              17.407039612125473
            ],
            [
              78.47725949087209,
              17.40738328379004
            ],
            [
              78.47614297529469,
              17.409067265603
            ],
            [
              78.47567475908437,
              17.409823334022576
            ],
            [
              78.47474602805562,
              17.408757966095152
            ],
            [
              78.47308926300354,
              17.408414297015838
            ],
            [
              78.47175664690394,
              17.408861066824272
            ],
            [
              78.47172063027239,
              17.410510668477016
            ],
            [
              78.47124941137696,
              17.410409067564913
            ]
          ]
        ],
        "type": "Polygon"
      },
      "id": 11
    },
    {
      "type": "Feature",
      "properties": {
        "limit": 35,
        "type": "general"
      },
      "geometry": {
        "coordinates": [
          [
            [
              78.4507146111556,
              17.427050390734266
            ],
            [
              78.45204450123305,
              17.424628030681234
            ],
            [
              78.45393858710275,
              17.42551238807691
            ],
            [
              78.45228629942915,
              17.428126984882525
            ],
            [
              78.4507146111556,
              17.427050390734266
            ]
          ]
        ],
        "type": "Polygon"
      },
      "id": 12
    },
    {
      "type": "Feature",
      "properties": {
        "limit": 40,
        "type": "general"
      },
      "geometry": {
        "coordinates": [
          [
            [
              78.50685280413069,
              17.449010429600605
            ],
            [
              78.50675222529907,
              17.4487949852452
            ],
            [
              78.50849045169622,
              17.44811268629472
            ],
            [
              78.50839991907156,
              17.44709355146138
            ],
            [
              78.5082822266586,
              17.446471703680203
            ],
            [
              78.50869867673254,
              17.446359425382326
            ],
            [
              78.50890690177016,
              17.44781040113388
            ],
            [
              78.50959494971801,
              17.447473568506283
            ],
            [
              78.50973980191804,
              17.44776721749855
            ],
            [
              78.50893406155711,
              17.44824223692514
            ],
            [
              78.5089521680818,
              17.448596341510637
            ],
            [
              78.50862624969159,
              17.448803621364974
            ],
            [
              78.50854477032931,
              17.448389060301366
            ],
            [
              78.5068699167698,
              17.449105904878806
            ],
            [
              78.50685280413069,
              17.449010429600605
            ]
          ]
        ],
        "type": "Polygon"
      },
      "id": 13
    },
    {
      "type": "Feature",
      "properties": {
        "limit": 35,
        "type": "school"
      },
      "geometry": {
        "coordinates": [
          [
            [
              78.5004312046492,
              17.440512093962866
            ],
            [
              78.50032202224003,
              17.43929054024484
            ],
            [
              78.50112600180114,
              17.43921478470591
            ],
            [
              78.50122525853698,
              17.440360583868326
            ],
            [
              78.5004312046492,
              17.440512093962866
            ]
          ]
        ],
        "type": "Polygon"
      },
      "id": 14
    },
    {
      "type": "Feature",
      "properties": {
        "limit": 35,
        "type": "school"
      },
      "geometry": {
        "coordinates": [
          [
            [
              78.57289209105255,
              17.43901884119464
            ],
            [
              78.57281742175701,
              17.438097840843312
            ],
            [
              78.57370812185201,
              17.43836752643199
            ],
            [
              78.57371878891882,
              17.43805713354979
            ],
            [
              78.57390012905819,
              17.438062221961914
            ],
            [
              78.57387346139109,
              17.438489648077464
            ],
            [
              78.57367078711803,
              17.43900866415703
            ],
            [
              78.57328143917232,
              17.439410646184513
            ],
            [
              78.57314276730023,
              17.439319055420782
            ],
            [
              78.57340944380189,
              17.439054459888453
            ],
            [
              78.57289209105255,
              17.43901884119464
            ]
          ]
        ],
        "type": "Polygon"
      },
      "id": 15
    },
    {
      "type": "Feature",
      "properties": {
        "limit": 40,
        "type": "school"
      },
      "geometry": {
        "coordinates": [
          [
            [
              78.55473238320837,
              17.43502535142045
            ],
            [
              78.553525965002,
              17.435288025788466
            ],
            [
              78.5532656590679,
              17.434757900745666
            ],
            [
              78.55328067672167,
              17.434418810959542
            ],
            [
              78.55366112395672,
              17.434251653790767
            ],
            [
              78.55370617691955,
              17.434055840912308
            ],
            [
              78.55470735385467,
              17.434036737205943
            ],
            [
              78.55477243035585,
              17.434552536584107
            ],
            [
              78.55473238320837,
              17.43502535142045
            ]
          ]
        ],
        "type": "Polygon"
      },
      "id": 16
    },
    {
      "type": "Feature",
      "properties": {
        "limit": 40,
        "type": "college"
      },
      "geometry": {
        "coordinates": [
          [
            [
              78.538343682287,
              17.32554346962324
            ],
            [
              78.53654516282955,
              17.325543469657177
            ],
            [
              78.53556937128377,
              17.324922456569354
            ],
            [
              78.53430658222385,
              17.325196433190385
            ],
            [
              78.53405785104599,
              17.323461241018492
            ],
            [
              78.5339813183756,
              17.322073075479835
            ],
            [
              78.53491884358624,
              17.321853890488313
            ],
            [
              78.5359711678023,
              17.322146137084417
            ],
            [
              78.53822888157629,
              17.32181735963097
            ],
            [
              78.53874547710012,
              17.322803690228284
            ],
            [
              78.53868807759807,
              17.325561734716885
            ],
            [
              78.538343682287,
              17.32554346962324
            ]
          ]
        ],
        "type": "Polygon"
      },
      "id": 17
    },
    {
      "type": "Feature",
      "properties": {
        "limit": 40,
        "type": "general"
      },
      "geometry": {
        "coordinates": [
          [
            [
              78.59342089216324,
              17.43768297994862
            ],
            [
              78.59288965358422,
              17.43688050576803
            ],
            [
              78.59342089216324,
              17.436289206744732
            ],
            [
              78.59417348014932,
              17.436542620846353
            ],
            [
              78.59390786085908,
              17.4375985091488
            ],
            [
              78.59342089216324,
              17.43768297994862
            ]
          ]
        ],
        "type": "Polygon"
      },
      "id": 18
    },
    {
      "type": "Feature",
      "properties": {
        "limit": 45,
        "type": "general"
      },
      "geometry": {
        "coordinates": [
          [
            [
              78.584061775652,
              17.418360584838524
            ],
            [
              78.58673024223191,
              17.404245775257223
            ],
            [
              78.58745536901893,
              17.404439515317634
            ],
            [
              78.58496093286817,
              17.41849895992634
            ],
            [
              78.584061775652,
              17.418360584838524
            ]
          ]
        ],
        "type": "Polygon"
      },
      "id": 19
    },
    {
      "type": "Feature",
      "properties": {
        "limit": 40,
        "type": "hospital"
      },
      "geometry": {
        "coordinates": [
          [
            [
              78.53356714845756,
              17.429824450805086
            ],
            [
              78.53191704402178,
              17.42845324705823
            ],
            [
              78.53263563788812,
              17.427716855609873
            ],
            [
              78.53420589856177,
              17.42924042083908
            ],
            [
              78.53356714845756,
              17.429824450805086
            ]
          ]
        ],
        "type": "Polygon"
      },
      "id": 20
    }
  ]
}
